[{"name":"FENGYUN 1C DEB","l1":"1 31980U 99025CPH 26188.34387934  .00000279  00000+0  38573-3 0  9998","l2":"2 31980  97.5876 225.6269 0425214 302.6154  53.4603 13.32332657924210","cat":"debris"},{"name":"FENGYUN 1C DEB","l1":"1 31984U 99025CPM 26188.23461375  .00000533  00000+0  24904-3 0  9998","l2":"2 31984  98.5589 191.8884 0062800 348.6808  11.2955 14.23295813973104","cat":"debris"},{"name":"FENGYUN 1C DEB","l1":"1 31985U 99025CPN 26187.92921028  .00000575  00000+0  24163-3 0  9993","l2":"2 31985  98.2021  80.4565 0151420   1.5445 358.6172 14.23276982985435","cat":"debris"},{"name":"FENGYUN 1C DEB","l1":"1 31986U 99025CPP 26184.11829753  .00000755  00000+0  38817-3 0  9995","l2":"2 31986  99.7381 146.8535 0123519 319.7072  39.4994 14.14927511694404","cat":"debris"},{"name":"FENGYUN 1C DEB","l1":"1 31987U 99025CPQ 26188.44237917  .00001899  00000+0  53497-3 0  9992","l2":"2 31987  99.0515 180.6776 0048655 264.0672 250.6469 14.46417091993560","cat":"debris"},{"name":"FENGYUN 1C DEB","l1":"1 31988U 99025CPR 26185.39121265  .00004371  00000+0  19603-2 0  9990","l2":"2 31988  98.1217 243.5201 0061264  53.9473 306.7360 14.21917073670458","cat":"debris"},{"name":"FENGYUN 1C DEB","l1":"1 31989U 99025CPS 26184.67349788  .00000468  00000+0  36618-3 0  9992","l2":"2 31989  99.1874 249.8219 0117415 107.6701  42.2174 13.93897341965442","cat":"debris"},{"name":"FENGYUN 1C DEB","l1":"1 31990U 99025CPT 26185.28928352  .00000178  00000+0  24461-3 0  9993","l2":"2 31990  99.1456 198.9103 0260333  23.6276 356.7353 13.57303879655332","cat":"debris"},{"name":"FENGYUN 1C DEB","l1":"1 31991U 99025CPU 26171.80868795  .00000039  00000+0  98456-4 0  9993","l2":"2 31991 100.4787  19.7537 0243616 305.0831  52.7680 13.61335638646739","cat":"debris"},{"name":"FENGYUN 1C DEB","l1":"1 31992U 99025CPV 26178.59863399  .00000198  00000+0  26158-3 0  9997","l2":"2 31992  99.1859 120.7327 0538667 272.7897  81.1718 13.23278615564780","cat":"debris"},{"name":"FENGYUN 1C DEB","l1":"1 31993U 99025CPW 26186.71093282  .00000802  00000+0  11176-2 0  9992","l2":"2 31993  99.2279 142.5476 0429513 357.5401   2.3612 13.28172552916638","cat":"debris"},{"name":"FENGYUN 1C DEB","l1":"1 31994U 99025CPX 26187.81323847  .00000245  00000+0  18840-3 0  9995","l2":"2 31994  98.5531 172.2805 0160472 293.2811  65.1531 13.95851263596712","cat":"debris"},{"name":"FENGYUN 1C DEB","l1":"1 31996U 99025CPZ 26178.59434275  .00001935  00000+0  19873-2 0  9993","l2":"2 31996  99.2944 106.9247 0298829 339.2097  19.7096 13.59630154573629","cat":"debris"},{"name":"FENGYUN 1C DEB","l1":"1 31997U 99025CQA 26188.49814228  .00001660  00000+0  17053-2 0  9997","l2":"2 31997 102.5053 294.3706 0289884 166.6046 194.2990 13.61500873644963","cat":"debris"},{"name":"FENGYUN 1C DEB","l1":"1 32086U 99025CQC 26185.38565326  .00001545  00000+0  13422-2 0  9992","l2":"2 32086  99.2636 237.8371 0293473 324.4898  33.7023 13.69755279645684","cat":"debris"},{"name":"FENGYUN 1C DEB","l1":"1 32088U 99025CQE 26186.95223626  .00000582  00000+0  82586-3 0  9990","l2":"2 32088 102.4028  97.8415 0462418 277.4084  77.4724 13.25792285625638","cat":"debris"},{"name":"FENGYUN 1C DEB","l1":"1 32089U 99025CQF 26182.27034852  .00000862  00000+0  44562-3 0  9996","l2":"2 32089  98.6533 186.6968 0108992 270.8888  87.9799 14.14557745660501","cat":"debris"},{"name":"FENGYUN 1C DEB","l1":"1 32093U 99025CQK 26187.42708528  .00000975  00000+0  32525-3 0  9992","l2":"2 32093  98.8992  52.8279 0079671 105.9601 255.0381 14.38105869994730","cat":"debris"},{"name":"FENGYUN 1C DEB","l1":"1 32094U 99025CQL 26188.42666307  .00000400  00000+0  24520-3 0  9991","l2":"2 32094  98.7577 178.5456 0036025  43.9176 316.4849 14.10999314972795","cat":"debris"},{"name":"FENGYUN 1C DEB","l1":"1 32095U 99025CQM 26186.84399004  .00000433  00000+0  23321-3 0  9997","l2":"2 32095  98.6302 201.3115 0076996 222.8529 136.6629 14.16274399977203","cat":"debris"},{"name":"FENGYUN 1C DEB","l1":"1 32096U 99025CQN 26185.05653855  .00001101  00000+0  85178-3 0  9998","l2":"2 32096  99.0533 214.0371 0134239 309.2816  49.6498 13.90763759956875","cat":"debris"},{"name":"FENGYUN 1C DEB","l1":"1 32098U 99025CQQ 26188.72076618  .00000347  00000+0  15160-3 0  9998","l2":"2 32098  98.6234 181.1317 0192722 241.0391 117.1344 14.20638393671667","cat":"debris"},{"name":"FENGYUN 1C DEB","l1":"1 32099U 99025CQR 26186.14015602  .00003298  00000+0  15900-2 0  9998","l2":"2 32099  98.2967 141.9822 0342193  64.5116 352.9171 13.92790766675329","cat":"debris"},{"name":"FENGYUN 1C DEB","l1":"1 32101U 99025CQT 26183.51898834  .00003233  00000+0  19832-2 0  9993","l2":"2 32101  99.0272  85.7863 0122863  38.4473 322.5369 14.02749276960104","cat":"debris"},{"name":"FENGYUN 1C DEB","l1":"1 32105U 99025CQX 26187.38881704  .00000751  00000+0  94282-3 0  9999","l2":"2 32105 103.4596 251.3472 0392838   7.9335 352.7759 13.41054641624677","cat":"debris"},{"name":"FENGYUN 1C DEB","l1":"1 32106U 99025CQY 26185.84893752  .00008829  00000+0  32267-2 0  9993","l2":"2 32106 101.4638 225.8709 0103164 220.5939 138.7509 14.30363691723073","cat":"debris"},{"name":"FENGYUN 1C DEB","l1":"1 32109U 99025CRB 26179.50323508  .00001234  00000+0  35752-3 0  9995","l2":"2 32109  98.3369  57.5138 0206130  82.3570 280.0972 14.34495786677235","cat":"debris"},{"name":"FENGYUN 1C DEB","l1":"1 32110U 99025CRC 26186.02537020  .00004534  00000+0  17512-2 0  9997","l2":"2 32110  99.5494  19.7734 0033420 142.3975   9.0486 14.30416413673070","cat":"debris"},{"name":"FENGYUN 1C DEB","l1":"1 32111U 99025CRD 26188.47830147  .00000392  00000+0  15141-3 0  9990","l2":"2 32111  98.4488 187.7354 0118812 313.9365 198.6180 14.31817332989896","cat":"debris"},{"name":"FENGYUN 1C DEB","l1":"1 32113U 99025CRF 26185.89553319  .00001400  00000+0  84661-3 0  9992","l2":"2 32113  99.0038 221.1606 0237115  27.6416 333.7122 13.95062498657325","cat":"debris"},{"name":"FENGYUN 1C DEB","l1":"1 32114U 99025CRG 26182.19601498  .00018550  00000+0  22442-2 0  9997","l2":"2 32114  99.9403 351.4363 0041552  93.8814 266.7144 14.83144555686956","cat":"debris"},{"name":"FENGYUN 1C DEB","l1":"1 32117U 99025CRK 26187.07615829  .00001889  00000+0  82476-3 0  9996","l2":"2 32117  98.5923 233.1482 0027032 208.5602 151.4098 14.24842048977202","cat":"debris"},{"name":"FENGYUN 1C DEB","l1":"1 32119U 99025CRM 26185.41152062  .00000939  00000+0  61568-3 0  9993","l2":"2 32119  99.8698  70.1846 0083046 223.0876 136.3767 14.03293793965848","cat":"debris"},{"name":"FENGYUN 1C DEB","l1":"1 32123U 99025CRR 26188.02595656  .00000785  00000+0  14129-3 0  9998","l2":"2 32123  98.9517  17.8372 0159408  21.6503 128.5872 14.62108760743882","cat":"debris"},{"name":"FENGYUN 1C DEB","l1":"1 32125U 99025CRT 26184.76149794  .00020271  00000+0  23933-2 0  9999","l2":"2 32125  99.0681 193.7883 0160025  52.5031 309.0601 14.75919948735121","cat":"debris"},{"name":"FENGYUN 1C DEB","l1":"1 32126U 99025CRU 26187.42290175  .00000864  00000+0  97670-3 0  9992","l2":"2 32126  99.0937  53.3827 0282099  87.5160 275.8240 13.57174361645043","cat":"debris"},{"name":"FENGYUN 1C DEB","l1":"1 32127U 99025CRV 26186.63571225  .00001346  00000+0  14223-2 0  9991","l2":"2 32127  99.2617 135.9600 0277684 186.6645 173.0771 13.60769028632060","cat":"debris"},{"name":"FENGYUN 1C DEB","l1":"1 32128U 99025CRW 26187.35857026  .00001057  00000+0  42886-3 0  9994","l2":"2 32128  99.0043 234.3784 0395511  18.7781 342.7511 13.94749823658518","cat":"debris"},{"name":"FENGYUN 1C DEB","l1":"1 32129U 99025CRX 26187.32921402  .00005923  00000+0  22013-2 0  9997","l2":"2 32129  99.0695 319.1265 0068454 157.5758 232.3733 14.31202857971653","cat":"debris"},{"name":"FENGYUN 1C DEB","l1":"1 32130U 99025CRY 26185.31377922  .00001469  00000+0  48051-3 0  9990","l2":"2 32130  98.9193   4.3501 0083368  89.4678 271.6060 14.38122135991600","cat":"debris"},{"name":"FENGYUN 1C DEB","l1":"1 32132U 99025CSA 26181.39208776  .00004481  00000+0  10486-2 0  9993","l2":"2 32132  98.3633 240.4888 0076736  14.0909 346.2404 14.53308253736969","cat":"debris"},{"name":"FENGYUN 1C DEB","l1":"1 32133U 99025CSB 26186.44650421  .00000366  00000+0  19680-3 0  9997","l2":"2 32133  98.4371 182.5541 0034206 227.1908 132.6391 14.18235487978761","cat":"debris"},{"name":"FENGYUN 1C DEB","l1":"1 32134U 99025CSC 26188.48982083  .00001740  00000+0  57166-3 0  9994","l2":"2 32134  98.5955 191.7207 0258263  23.5958 126.5880 14.22342552980851","cat":"debris"},{"name":"FENGYUN 1C DEB","l1":"1 32136U 99025CSE 26182.24099759  .00001330  00000+0  43690-3 0  9995","l2":"2 32136  98.2729 178.0536 0064924 292.1235  67.3070 14.38666002679723","cat":"debris"},{"name":"FENGYUN 1C DEB","l1":"1 32137U 99025CSF 26181.13021489  .00012373  00000+0  10808-2 0  9991","l2":"2 32137  98.4653 325.1167 0175560 112.4362 249.5551 14.85772855696870","cat":"debris"},{"name":"FENGYUN 1C DEB","l1":"1 32141U 99025CSK 26171.73248493  .00000538  00000+0  35868-3 0  9991","l2":"2 32141  98.7455 171.9726 0074971  36.8766 323.7524 14.03882811976091","cat":"debris"},{"name":"FENGYUN 1C DEB","l1":"1 32143U 99025CSM 26186.75435083  .00000307  00000+0  16193-3 0  9998","l2":"2 32143  98.6190 162.5858 0102108 238.0028 121.1193 14.18144220988390","cat":"debris"},{"name":"FENGYUN 1C DEB","l1":"1 32150U 99025CSU 26184.88327740  .00000646  00000+0  11834-3 0  9991","l2":"2 32150  99.1681 234.7983 0170223 170.2644 190.1923 14.61112397  6514","cat":"debris"},{"name":"FENGYUN 1C DEB","l1":"1 32152U 99025CSW 26185.76422353  .00009283  00000+0  19288-2 0  9993","l2":"2 32152  98.7768   3.0100 0051549 297.4074  62.1885 14.59501385655862","cat":"debris"},{"name":"FENGYUN 1C DEB","l1":"1 32153U 99025CSX 26182.87074739  .00000737  00000+0  16019-3 0  9999","l2":"2 32153  98.7522  38.6091 0206294 334.7756  24.3470 14.49157986  1324","cat":"debris"},{"name":"FENGYUN 1C DEB","l1":"1 32155U 99025CSZ 26181.09868747  .00001279  00000+0  46684-3 0  9997","l2":"2 32155  98.9669 122.6171 0070476  18.4645 341.9073 14.33487943730785","cat":"debris"}]